     2.100          NAVIGATION                              RINEX VERSION / TYPE
fic2rin                                 06/11/2016 00:05:07 PGM / RUN BY / DATE
                                                            END OF HEADER
31 16  6 10  4  0  0.0  .264682807028D-03 -.193267624127D-11  .000000000000D+00
     .650000000000D+02  .248750000000D+02  .408338437506D-08 -.252905964181D+01
     .124983489513D-05  .814829731826D-02  .984780490398D-05  .515376264954D+04
     .446400000000D+06 -.912696123123D-07  .756706703049D+00  .502914190292D-07
     .971258261239D+00  .196343750000D+03 -.395241478251D+00 -.777603818892D-08
    -.409302763389D-09  .100000000000D+01  .190000000000D+04  .000000000000D+00
     .240000000000D+01  .000000000000D+00 -.135041773319D-07  .650000000000D+02
     .439206000000D+06  .400000000000D+01
32 16  6 10  4  0  0.0 -.215489417315D-04 -.773070496507D-11  .000000000000D+00
     .530000000000D+02  .135312500000D+02  .489234664302D-08  .756463406606D+00
     .813975930214D-06  .464988173917D-03  .609830021858D-05  .515360952759D+04
     .446400000000D+06  .149011611938D-07 -.329010101940D+00  .130385160446D-07
     .959727306872D+00  .261718750000D+03 -.232334121516D+01 -.821962809479D-08
    -.282868925483D-09  .100000000000D+01  .190000000000D+04  .000000000000D+00
     .240000000000D+01  .000000000000D+00  .465661287308D-09  .530000000000D+02
     .439206000000D+06  .400000000000D+01
28 16  6 10  3 59 44.0  .529071316123D-03  .261479726760D-11  .000000000000D+00
     .700000000000D+01  .545937500000D+02  .383051669925D-08  .121879145821D+01
     .266171991825D-05  .197421419434D-01  .623799860477D-05  .515363034821D+04
     .446384000000D+06 -.312924385071D-06  .184772579317D+01 -.355765223503D-06
     .989316491289D+00  .275281250000D+03 -.161586853877D+01 -.807747931658D-08
     .250010413937D-09  .100000000000D+01  .190000000000D+04  .000000000000D+00
     .240000000000D+01  .000000000000D+00 -.111758708954D-07  .700000000000D+01
     .443796000000D+06  .400000000000D+01
28 16  6 10  5 59 44.0  .529090408236D-03  .261479726760D-11  .000000000000D+00
     .800000000000D+01  .560000000000D+02  .360729311538D-08  .226907170890D+01
     .280514359474D-05  .197421363555D-01  .652857124805D-05  .515362752533D+04
     .453584000000D+06  .284984707832D-06  .184767060459D+01 -.115483999252D-06
     .989320994150D+00  .263468750000D+03 -.161594629433D+01 -.745138180853D-08
     .188579283656D-09  .100000000000D+01  .190000000000D+04  .000000000000D+00
     .240000000000D+01  .000000000000D+00 -.111758708954D-07  .800000000000D+01
     .446406000000D+06  .400000000000D+01
 1 16  6 10  6  0  0.0  .231531448662D-04  .125055521494D-11  .000000000000D+00
     .180000000000D+02 -.873125000000D+02  .444625663301D-08 -.620127057570D+00
    -.440329313278D-05  .555684708524D-02  .895746052265D-05  .515364697838D+04
     .453600000000D+06  .126659870148D-06 -.241154353344D+01  .409781932831D-07
     .964618798759D+00  .208625000000D+03  .467564619532D+00 -.803676333488D-08
     .346443002170D-10  .100000000000D+01  .190000000000D+04  .000000000000D+00
     .240000000000D+01  .000000000000D+00  .512227416039D-08  .180000000000D+02
     .446406000000D+06  .400000000000D+01
 2 16  6 10  6  0  0.0  .586422625929D-03 -.250111042988D-11  .000000000000D+00
     .750000000000D+02 -.656875000000D+02  .500306554062D-08 -.262541128715D+00
    -.341422855854D-05  .157664640574D-01  .885874032974D-05  .515357976151D+04
     .453600000000D+06 -.894069671631D-07 -.245735741855D+01  .206753611565D-06
     .943419241793D+00  .206343750000D+03 -.210991062965D+01 -.849356807692D-08
     .107147320259D-09  .100000000000D+01  .190000000000D+04  .000000000000D+00
     .240000000000D+01  .000000000000D+00 -.200234353542D-07  .750000000000D+02
     .446406000000D+06  .400000000000D+01
 3 16  6 10  6  0  0.0 -.659264624119D-04 -.341060513165D-11  .000000000000D+00
     .950000000000D+02  .112187500000D+02  .478448500729D-08  .437718273134D+00
     .668689608574D-06  .224027433433D-03  .946968793869D-05  .515368651962D+04
     .453600000000D+06  .782310962677D-07 -.136995655201D+01  .409781932831D-07
     .958891942613D+00  .197093750000D+03 -.172613541114D+01 -.805569269479D-08
     .379658671450D-09  .100000000000D+01  .190000000000D+04  .000000000000D+00
     .240000000000D+01  .000000000000D+00  .186264514923D-08  .950000000000D+02
     .446406000000D+06  .400000000000D+01
 4 16  6 10  6  0  0.0 -.257563311607D-03 -.568434188608D-12  .000000000000D+00
     .210000000000D+02  .764062500000D+02  .503985278724D-08  .256056771539D+01
     .386871397495D-05  .850021175575D-02  .661239027977D-05  .515365422440D+04
     .453600000000D+06  .875443220139D-07  .179454577175D+01 -.102445483208D-06
     .983087719652D+00  .264000000000D+03  .894340050384D+00 -.780068207258D-08
     .247153152064D-09  .100000000000D+01  .190000000000D+04  .000000000000D+00
     .240000000000D+01  .630000000000D+02 -.195577740669D-07  .210000000000D+02
     .446406000000D+06  .400000000000D+01
 5 16  6 10  6  0  0.0 -.114018097520D-03  .295585778076D-11  .000000000000D+00
     .590000000000D+02  .145937500000D+02  .508164024214D-08  .224143109772D+01
     .817701220512D-06  .463612878229D-02  .896677374840D-05  .515380940628D+04
     .453600000000D+06 -.178813934326D-06 -.138204510199D+01 -.260770320892D-07
     .945959266955D+00  .200875000000D+03  .453354147837D+00 -.815641117584D-08
     .342514267094D-09  .100000000000D+01  .190000000000D+04  .000000000000D+00
     .240000000000D+01  .000000000000D+00 -.107102096081D-07  .590000000000D+02
     .446406000000D+06  .400000000000D+01
 6 16  6 10  6  0  0.0  .202646944672D-03  .545696821064D-11  .000000000000D+00
     .920000000000D+02 -.807812500000D+02  .443554190098D-08 -.388078155047D+00
    -.447966158390D-05  .414886977524D-03  .881962478161D-05  .515370947075D+04
     .453600000000D+06 -.223517417908D-07 -.241997164149D+01 -.279396772385D-07
     .964451461412D+00  .212562500000D+03 -.133316409648D+01 -.795211695188D-08
     .871464871438D-10  .100000000000D+01  .190000000000D+04  .000000000000D+00
     .240000000000D+01  .000000000000D+00  .419095158577D-08  .920000000000D+02
     .446406000000D+06  .400000000000D+01
 7 16  6 10  6  0  0.0  .449388753623D-03 -.238742359215D-11  .000000000000D+00
     .260000000000D+02  .150625000000D+02  .417553107049D-08 -.134438905666D+01
     .666826963425D-06  .955785647966D-02  .925362110138D-05  .515364605522D+04
     .453600000000D+06  .158324837685D-06  .747242187762D+00 -.238418579102D-06
     .966445139336D+00  .205281250000D+03 -.267482893197D+01 -.778782439415D-08
    -.423946230491D-09  .100000000000D+01  .190000000000D+04  .000000000000D+00
     .240000000000D+01  .000000000000D+00 -.111758708954D-07  .260000000000D+02
     .446406000000D+06  .400000000000D+01
 8 16  6 10  6  0  0.0 -.384552404284D-04 -.147792889038D-11  .000000000000D+00
     .850000000000D+02 -.323750000000D+02  .458054794106D-08  .234537776169D+01
    -.170432031155D-05  .173140084371D-02  .336207449436D-05  .515370171547D+04
     .453600000000D+06 -.372529029846D-08  .281149540602D+01  .353902578354D-07
     .963624200256D+00  .315593750000D+03 -.107633174663D+01 -.830927468607D-08
     .104290058385D-09  .100000000000D+01  .190000000000D+04  .000000000000D+00
     .340000000000D+01  .000000000000D+00  .465661287308D-08  .850000000000D+02
     .446406000000D+06  .400000000000D+01
 9 16  6 10  6  0  0.0  .145752914250D-03  .727595761418D-11  .000000000000D+00
     .860000000000D+02  .156875000000D+02  .498127891883D-08  .110688480974D+01
     .633299350739D-06  .545107293874D-03  .593811273575D-05  .515355937004D+04
     .453600000000D+06 -.465661287308D-07 -.330531953674D+00  .558793544769D-08
     .955131388805D+00  .258500000000D+03  .232838229481D+01 -.823784313923D-08
    -.241438628317D-09  .100000000000D+01  .190000000000D+04  .000000000000D+00
     .240000000000D+01  .000000000000D+00  .139698386192D-08  .860000000000D+02
     .446406000000D+06  .400000000000D+01
10 16  6 10  6  0  0.0 -.421497970819D-04 -.829913915368D-11  .000000000000D+00
     .960000000000D+02  .227812500000D+02  .474055460598D-08 -.297178642857D+01
     .117532908916D-05  .154065259267D-02  .945106148720D-05  .515368192291D+04
     .453600000000D+06 -.353902578354D-07 -.137395510649D+01 -.186264514923D-08
     .959129618524D+00  .198750000000D+03 -.271270252930D+01 -.800640492747D-08
     .355371945525D-09  .100000000000D+01  .190000000000D+04  .000000000000D+00
     .240000000000D+01  .000000000000D+00  .232830643654D-08  .960000000000D+02
     .446406000000D+06  .400000000000D+01
11 16  6 10  6  0  0.0 -.650043133646D-03 -.125055521494D-11  .000000000000D+00
     .700000000000D+02 -.880312500000D+02  .613418408482D-08 -.122763826658D+01
    -.417605042458D-05  .164408582496D-01  .633671879768D-05  .515366552162D+04
     .453600000000D+06 -.130385160446D-06 -.278939553855D+01  .387430191040D-06
     .897104112673D+00  .225375000000D+03  .152880442489D+01 -.904287667211D-08
    -.821462788651D-11  .100000000000D+01  .190000000000D+04  .000000000000D+00
     .240000000000D+01  .000000000000D+00 -.121071934700D-07  .700000000000D+02
     .446406000000D+06  .400000000000D+01
12 16  6 10  6  0  0.0  .382308382541D-03  .113686837722D-11  .000000000000D+00
     .640000000000D+02  .626250000000D+02  .367801034675D-08 -.191692269900D+01
     .328198075294D-05  .613606791012D-02  .618025660515D-05  .515371996117D+04
     .453600000000D+06  .372529029846D-08  .182394723305D+01 -.126659870148D-06
     .990099339715D+00  .277125000000D+03  .760704056480D+00 -.769639201419D-08
     .186793494985D-09  .100000000000D+01  .190000000000D+04  .000000000000D+00
     .240000000000D+01  .000000000000D+00 -.125728547573D-07  .640000000000D+02
     .446406000000D+06  .400000000000D+01
